{"type": "FeatureCollection", "features": [ {"type": "Feature", "properties": {"norad_id": 39122, "name": "EUTELSAT 117 WEST A", "group": "eutelsat", "lat": 0.013289073766921837, "lon": 162.8962310537965, "alt_km": 35785.7654964253, "timestamp": "2025-12-02T13:52:16.946803+00:00", "meta": {"OBJECT_NAME": "EUTELSAT 117 WEST A", "OBJECT_ID": "2013-012A", "EPOCH": "2025-12-02T04:40:09.913152", "MEAN_MOTION": 1.00271774, "ECCENTRICITY": 0.00030963, "INCLINATION": 0.034, "RA_OF_ASC_NODE": 51.4389, "ARG_OF_PERICENTER": 200.1856, "MEAN_ANOMALY": 132.9281, "EPHEMERIS_TYPE": 0, "CLASSIFICATION_TYPE": "U", "NORAD_CAT_ID": 39122, "ELEMENT_SET_NO": 999, "REV_AT_EPOCH": 4645, "BSTAR": 0, "MEAN_MOTION_DOT": 8e-08, "MEAN_MOTION_DDOT": 0}, "tle": {"line1": "1 39122U 13012A   25336.19455918  .00000008  00000+0  00000+0 0  9991", "line2": "2 39122   0.0340  51.4389 0003096 200.1856 132.9281  1.00271774 46450"}}, "geometry": {"type": "Point", "coordinates": [162.8962310537965, 0.013289073766921837]}}, {"type": "Feature", "properties": {"norad_id": 39163, "name": "EUTELSAT 7B", "group": "eutelsat", "lat": -0.07380140472444771, "lon": -73.28625498189047, "alt_km": 35769.53215201926, "timestamp": "2025-12-02T13:52:16.946815+00:00", "meta": {"OBJECT_NAME": "EUTELSAT 7B", "OBJECT_ID": "2013-022A", "EPOCH": "2025-12-02T05:15:29.031264", "MEAN_MOTION": 1.00272279, "ECCENTRICITY": 0.00042898, "INCLINATION": 0.0677, "RA_OF_ASC_NODE": 356.8609, "ARG_OF_PERICENTER": 314.5613, "MEAN_ANOMALY": 205.7859, "EPHEMERIS_TYPE": 0, "CLASSIFICATION_TYPE": "U", "NORAD_CAT_ID": 39163, "ELEMENT_SET_NO": 999, "REV_AT_EPOCH": 4598, "BSTAR": 0, "MEAN_MOTION_DOT": 6.9e-07, "MEAN_MOTION_DDOT": 0}, "tle": {"line1": "1 39163U 13022A   25336.21908601  .00000069  00000+0  00000+0 0  9999", "line2": "2 39163   0.0677 356.8609 0004289 314.5613 205.7859  1.00272279 45989"}}, "geometry": {"type": "Point", "coordinates": [-73.28625498189047, -0.07380140472444771]}}, {"type": "Feature", "properties": {"norad_id": 39612, "name": "EXPRESS-AT1", "group": "eutelsat", "lat": 0.022527257043178237, "lon": -24.26848342454163, "alt_km": 35788.31593820961, "timestamp": "2025-12-02T13:52:16.946827+00:00", "meta": {"OBJECT_NAME": "EXPRESS-AT1", "OBJECT_ID": "2014-010A", "EPOCH": "2025-12-02T03:46:40.765728", "MEAN_MOTION": 1.0026954, "ECCENTRICITY": 3.956e-05, "INCLINATION": 0.0131, "RA_OF_ASC_NODE": 275.0216, "ARG_OF_PERICENTER": 233.472, "MEAN_ANOMALY": 35.4546, "EPHEMERIS_TYPE": 0, "CLASSIFICATION_TYPE": "U", "NORAD_CAT_ID": 39612, "ELEMENT_SET_NO": 999, "REV_AT_EPOCH": 4284, "BSTAR": 0, "MEAN_MOTION_DOT": 1e-06, "MEAN_MOTION_DDOT": 0}, "tle": {"line1": "1 39612U 14010A   25336.15741627  .00000100  00000+0  00000+0 0  9998", "line2": "2 39612   0.0131 275.0216 0000395 233.4720  35.4546  1.00269540 42841"}}, "geometry": {"type": "Point", "coordinates": [-24.26848342454163, 0.022527257043178237]}}, {"type": "Feature", "properties": {"norad_id": 39613, "name": "EXPRESS-AT2", "group": "eutelsat", "lat": 0.03724155820011991, "lon": 59.598372222376106, "alt_km": 35789.38420287958, "timestamp": "2025-12-02T13:52:16.946838+00:00", "meta": {"OBJECT_NAME": "EXPRESS-AT2", "OBJECT_ID": "2014-010B", "EPOCH": "2025-12-02T07:36:08.057952", "MEAN_MOTION": 1.00272328, "ECCENTRICITY": 0.00012165, "INCLINATION": 0.0169, "RA_OF_ASC_NODE": 302.6529, "ARG_OF_PERICENTER": 345.266, "MEAN_ANOMALY": 37.4023, "EPHEMERIS_TYPE": 0, "CLASSIFICATION_TYPE": "U", "NORAD_CAT_ID": 39613, "ELEMENT_SET_NO": 999, "REV_AT_EPOCH": 4252, "BSTAR": 0, "MEAN_MOTION_DOT": -2.6e-06, "MEAN_MOTION_DDOT": 0}, "tle": {"line1": "1 39613U 14010B   25336.31675993 -.00000260  00000+0  00000+0 0  9997", "line2": "2 39613   0.0169 302.6529 0001216 345.2660  37.4023  1.00272328 42520"}}, "geometry": {"type": "Point", "coordinates": [59.598372222376106, 0.03724155820011991]}}, {"type": "Feature", "properties": {"norad_id": 39773, "name": "EUTELSAT 3B", "group": "eutelsat", "lat": -0.07220575801881897, "lon": -77.13376838492105, "alt_km": 35775.14118513487, "timestamp": "2025-12-02T13:52:16.946850+00:00", "meta": {"OBJECT_NAME": "EUTELSAT 3B", "OBJECT_ID": "2014-030A", "EPOCH": "2025-12-02T05:14:21.638400", "MEAN_MOTION": 1.00270578, "ECCENTRICITY": 0.0004752, "INCLINATION": 0.0629, "RA_OF_ASC_NODE": 358.738, "ARG_OF_PERICENTER": 227.9713, "MEAN_ANOMALY": 286.3063, "EPHEMERIS_TYPE": 0, "CLASSIFICATION_TYPE": "U", "NORAD_CAT_ID": 39773, "ELEMENT_SET_NO": 999, "REV_AT_EPOCH": 4209, "BSTAR": 0, "MEAN_MOTION_DOT": 4.1e-07, "MEAN_MOTION_DDOT": 0}, "tle": {"line1": "1 39773U 14030A   25336.21830600  .00000041  00000+0  00000+0 0  9999", "line2": "2 39773   0.0629 358.7380 0004752 227.9713 286.3063  1.00270578 42094"}}, "geometry": {"type": "Point", "coordinates": [-77.13376838492105, -0.07220575801881897]}}, {"type": "Feature", "properties": {"norad_id": 40425, "name": "EUTELSAT 115 WEST B", "group": "eutelsat", "lat": 0.004396416520471437, "lon": 164.8196019729678, "alt_km": 35787.145692796395, "timestamp": "2025-12-02T13:52:16.946861+00:00", "meta": {"OBJECT_NAME": "EUTELSAT 115 WEST B", "OBJECT_ID": "2015-010B", "EPOCH": "2025-12-01T23:33:38.579328", "MEAN_MOTION": 1.00269195, "ECCENTRICITY": 1.917e-05, "INCLINATION": 0.0091, "RA_OF_ASC_NODE": 164.6167, "ARG_OF_PERICENTER": 243.8605, "MEAN_ANOMALY": 261.1263, "EPHEMERIS_TYPE": 0, "CLASSIFICATION_TYPE": "U", "NORAD_CAT_ID": 40425, "ELEMENT_SET_NO": 999, "REV_AT_EPOCH": 3941, "BSTAR": 0, "MEAN_MOTION_DOT": -3e-08, "MEAN_MOTION_DDOT": 0}, "tle": {"line1": "1 40425U 15010B   25335.98169652 -.00000003  00000+0  00000+0 0  9998", "line2": "2 40425   0.0091 164.6167 0000191 243.8605 261.1263  1.00269195 39418"}}, "geometry": {"type": "Point", "coordinates": [164.8196019729678, 0.004396416520471437]}}, {"type": "Feature", "properties": {"norad_id": 40875, "name": "EUTELSAT 8 WEST B", "group": "eutelsat", "lat": -0.07893023539970401, "lon": -88.25662002254808, "alt_km": 35769.527779491254, "timestamp": "2025-12-02T13:52:16.946873+00:00", "meta": {"OBJECT_NAME": "EUTELSAT 8 WEST B", "OBJECT_ID": "2015-039B", "EPOCH": "2025-12-02T05:11:06.948960", "MEAN_MOTION": 1.00271505, "ECCENTRICITY": 0.00041254, "INCLINATION": 0.0663, "RA_OF_ASC_NODE": 344.6569, "ARG_OF_PERICENTER": 269.3537, "MEAN_ANOMALY": 247.0984, "EPHEMERIS_TYPE": 0, "CLASSIFICATION_TYPE": "U", "NORAD_CAT_ID": 40875, "ELEMENT_SET_NO": 999, "REV_AT_EPOCH": 3768, "BSTAR": 0, "MEAN_MOTION_DOT": -4.5e-07, "MEAN_MOTION_DDOT": 0}, "tle": {"line1": "1 40875U 15039B   25336.21605265 -.00000045  00000+0  00000+0 0  9996", "line2": "2 40875   0.0663 344.6569 0004125 269.3537 247.0984  1.00271505 37684"}}, "geometry": {"type": "Point", "coordinates": [-88.25662002254808, -0.07893023539970401]}}, {"type": "Feature", "properties": {"norad_id": 41310, "name": "EUTELSAT 9B", "group": "eutelsat", "lat": -0.044621766604862674, "lon": -71.26675848724925, "alt_km": 35767.74498303336, "timestamp": "2025-12-02T13:52:16.946885+00:00", "meta": {"OBJECT_NAME": "EUTELSAT 9B", "OBJECT_ID": "2016-005A", "EPOCH": "2025-12-02T05:15:58.982688", "MEAN_MOTION": 1.00270966, "ECCENTRICITY": 0.0004831, "INCLINATION": 0.0623, "RA_OF_ASC_NODE": 74.5775, "ARG_OF_PERICENTER": 189.365, "MEAN_ANOMALY": 255.368, "EPHEMERIS_TYPE": 0, "CLASSIFICATION_TYPE": "U", "NORAD_CAT_ID": 41310, "ELEMENT_SET_NO": 999, "REV_AT_EPOCH": 3614, "BSTAR": 0, "MEAN_MOTION_DOT": 8.3e-07, "MEAN_MOTION_DDOT": 0}, "tle": {"line1": "1 41310U 16005A   25336.21943267  .00000083  00000+0  00000+0 0  9993", "line2": "2 41310   0.0623  74.5775 0004831 189.3650 255.3680  1.00270966 36149"}}, "geometry": {"type": "Point", "coordinates": [-71.26675848724925, -0.044621766604862674]}}, {"type": "Feature", "properties": {"norad_id": 41382, "name": "EUTELSAT 65 WEST A", "group": "eutelsat", "lat": -0.06291156078442342, "lon": -145.49611928176475, "alt_km": 35777.897649318256, "timestamp": "2025-12-02T13:52:16.946897+00:00", "meta": {"OBJECT_NAME": "EUTELSAT 65 WEST A", "OBJECT_ID": "2016-014A", "EPOCH": "2025-12-02T04:54:53.501760", "MEAN_MOTION": 1.0027119, "ECCENTRICITY": 0.00027117, "INCLINATION": 0.0507, "RA_OF_ASC_NODE": 340.711, "ARG_OF_PERICENTER": 276.879, "MEAN_ANOMALY": 182.2487, "EPHEMERIS_TYPE": 0, "CLASSIFICATION_TYPE": "U", "NORAD_CAT_ID": 41382, "ELEMENT_SET_NO": 999, "REV_AT_EPOCH": 3556, "BSTAR": 0, "MEAN_MOTION_DOT": -2.55e-06, "MEAN_MOTION_DDOT": 0}, "tle": {"line1": "1 41382U 16014A   25336.20478590 -.00000255  00000+0  00000+0 0  9995", "line2": "2 41382   0.0507 340.7110 0002711 276.8790 182.2487  1.00271190 35560"}}, "geometry": {"type": "Point", "coordinates": [-145.49611928176475, -0.06291156078442342]}}, {"type": "Feature", "properties": {"norad_id": 41589, "name": "EUTELSAT 117 WEST B", "group": "eutelsat", "lat": 0.007441249185250365, "lon": 162.7347793535043, "alt_km": 35786.154115701625, "timestamp": "2025-12-02T13:52:16.946908+00:00", "meta": {"OBJECT_NAME": "EUTELSAT 117 WEST B", "OBJECT_ID": "2016-038B", "EPOCH": "2025-12-01T14:58:10.977024", "MEAN_MOTION": 1.00272248, "ECCENTRICITY": 1.075e-05, "INCLINATION": 0.0065, "RA_OF_ASC_NODE": 141.8344, "ARG_OF_PERICENTER": 143.4656, "MEAN_ANOMALY": 252.9964, "EPHEMERIS_TYPE": 0, "CLASSIFICATION_TYPE": "U", "NORAD_CAT_ID": 41589, "ELEMENT_SET_NO": 999, "REV_AT_EPOCH": 3468, "BSTAR": 0, "MEAN_MOTION_DOT": 1e-07, "MEAN_MOTION_DDOT": 0}, "tle": {"line1": "1 41589U 16038B   25335.62373816  .00000010  00000+0  00000+0 0  9998", "line2": "2 41589   0.0065 141.8344 0000107 143.4656 252.9964  1.00272248 34686"}}, "geometry": {"type": "Point", "coordinates": [162.7347793535043, 0.007441249185250365]}}]}